[
  {
    "COMMENT": "GENERATED VIA SPACETRACK.ORG API",
    "ORIGINATOR": "18 SPCS",
    "NORAD_CAT_ID": "39086",
    "OBJECT_NAME": "SARAL",
    "OBJECT_TYPE": "PAYLOAD",
    "CLASSIFICATION_TYPE": "U",
    "INTLDES": "13009A",
    "EPOCH": "2023-04-01 14:23:01",
    "EPOCH_MICROSECONDS": "915008",
    "MEAN_MOTION": "14.3216654",
    "ECCENTRICITY": "0.0002589",
    "INCLINATION": "98.548",
    "RA_OF_ASC_NODE": "278.002",
    "ARG_OF_PERICENTER": "130.3555",
    "MEAN_ANOMALY": "229.7855",
    "EPHEMERIS_TYPE": "0",
    "ELEMENT_SET_NO": "999",
    "REV_AT_EPOCH": "52772",
    "BSTAR": "0.00012866",
    "MEAN_MOTION_DOT": "0.00000303",
    "MEAN_MOTION_DDOT": "0",
    "FILE": "3877270",
    "TLE_LINE0": "0 SARAL",
    "TLE_LINE1": "1 39086U 13009A   23091.59932772  .00000303  00000-0  12866-3 0  9990",
    "TLE_LINE2": "2 39086  98.5480 278.0020 0002589 130.3555 229.7855 14.32166540527720",
    "OBJECT_ID": "2013-009A",
    "OBJECT_NUMBER": "39086",
    "SEMIMAJOR_AXIS": "7162.635",
    "PERIOD": "100.547",
    "APOGEE": "786.354",
    "PERIGEE": "782.646",
    "DECAYED": "0"
  },
  {
    "COMMENT": "GENERATED VIA SPACETRACK.ORG API",
    "ORIGINATOR": "18 SPCS",
    "NORAD_CAT_ID": "39086",
    "OBJECT_NAME": "SARAL",
    "OBJECT_TYPE": "PAYLOAD",
    "CLASSIFICATION_TYPE": "U",
    "INTLDES": "13009A",
    "EPOCH": "2023-04-01 19:24:50",
    "EPOCH_MICROSECONDS": "737248",
    "MEAN_MOTION": "14.32166706",
    "ECCENTRICITY": "0.0002597",
    "INCLINATION": "98.5481",
    "RA_OF_ASC_NODE": "278.2086",
    "ARG_OF_PERICENTER": "129.8707",
    "MEAN_ANOMALY": "230.2705",
    "EPHEMERIS_TYPE": "0",
    "ELEMENT_SET_NO": "999",
    "REV_AT_EPOCH": "52775",
    "BSTAR": "0.0001297",
    "MEAN_MOTION_DOT": "0.00000306",
    "MEAN_MOTION_DDOT": "0",
    "FILE": "3877294",
    "TLE_LINE0": "0 SARAL",
    "TLE_LINE1": "1 39086U 13009A   23091.80892057  .00000306  00000-0  12970-3 0  9994",
    "TLE_LINE2": "2 39086  98.5481 278.2086 0002597 129.8707 230.2705 14.32166706527754",
    "OBJECT_ID": "2013-009A",
    "OBJECT_NUMBER": "39086",
    "SEMIMAJOR_AXIS": "7162.635",
    "PERIOD": "100.547",
    "APOGEE": "786.360",
    "PERIGEE": "782.639",
    "DECAYED": "0"
  },
  {
    "COMMENT": "GENERATED VIA SPACETRACK.ORG API",
    "ORIGINATOR": "18 SPCS",
    "NORAD_CAT_ID": "39086",
    "OBJECT_NAME": "SARAL",
    "OBJECT_TYPE": "PAYLOAD",
    "CLASSIFICATION_TYPE": "U",
    "INTLDES": "13009A",
    "EPOCH": "2023-04-01 21:05:27",
    "EPOCH_MICROSECONDS": "11904",
    "MEAN_MOTION": "14.3216675",
    "ECCENTRICITY": "0.00026",
    "INCLINATION": "98.5481",
    "RA_OF_ASC_NODE": "278.2774",
    "ARG_OF_PERICENTER": "129.7318",
    "MEAN_ANOMALY": "230.4095",
    "EPHEMERIS_TYPE": "0",
    "ELEMENT_SET_NO": "999",
    "REV_AT_EPOCH": "52776",
    "BSTAR": "0.00012845",
    "MEAN_MOTION_DOT": "0.00000302",
    "MEAN_MOTION_DDOT": "0",
    "FILE": "3877516",
    "TLE_LINE0": "0 SARAL",
    "TLE_LINE1": "1 39086U 13009A   23091.87878486  .00000302  00000-0  12845-3 0  9998",
    "TLE_LINE2": "2 39086  98.5481 278.2774 0002600 129.7318 230.4095 14.32166750527764",
    "OBJECT_ID": "2013-009A",
    "OBJECT_NUMBER": "39086",
    "SEMIMAJOR_AXIS": "7162.634",
    "PERIOD": "100.547",
    "APOGEE": "786.362",
    "PERIGEE": "782.637",
    "DECAYED": "0"
  },
  {
    "COMMENT": "GENERATED VIA SPACETRACK.ORG API",
    "ORIGINATOR": "18 SPCS",
    "NORAD_CAT_ID": "39086",
    "OBJECT_NAME": "SARAL",
    "OBJECT_TYPE": "PAYLOAD",
    "CLASSIFICATION_TYPE": "U",
    "INTLDES": "13009A",
    "EPOCH": "2023-04-02 13:51:29",
    "EPOCH_MICROSECONDS": "749824",
    "MEAN_MOTION": "14.3216714",
    "ECCENTRICITY": "0.0002625",
    "INCLINATION": "98.548",
    "RA_OF_ASC_NODE": "278.966",
    "ARG_OF_PERICENTER": "128.3775",
    "MEAN_ANOMALY": "231.7645",
    "EPHEMERIS_TYPE": "0",
    "ELEMENT_SET_NO": "999",
    "REV_AT_EPOCH": "52786",
    "BSTAR": "0.00012233",
    "MEAN_MOTION_DOT": "0.00000286",
    "MEAN_MOTION_DDOT": "0",
    "FILE": "3878126",
    "TLE_LINE0": "0 SARAL",
    "TLE_LINE1": "1 39086U 13009A   23092.57742766  .00000286  00000-0  12233-3 0  9999",
    "TLE_LINE2": "2 39086  98.5480 278.9660 0002625 128.3775 231.7645 14.32167140527863",
    "OBJECT_ID": "2013-009A",
    "OBJECT_NUMBER": "39086",
    "SEMIMAJOR_AXIS": "7162.633",
    "PERIOD": "100.547",
    "APOGEE": "786.378",
    "PERIGEE": "782.618",
    "DECAYED": "0"
  },
  {
    "COMMENT": "GENERATED VIA SPACETRACK.ORG API",
    "ORIGINATOR": "18 SPCS",
    "NORAD_CAT_ID": "39086",
    "OBJECT_NAME": "SARAL",
    "OBJECT_TYPE": "PAYLOAD",
    "CLASSIFICATION_TYPE": "U",
    "INTLDES": "13009A",
    "EPOCH": "2023-04-02 20:33:54",
    "EPOCH_MICROSECONDS": "842400",
    "MEAN_MOTION": "14.32167214",
    "ECCENTRICITY": "0.0002636",
    "INCLINATION": "98.5481",
    "RA_OF_ASC_NODE": "279.2414",
    "ARG_OF_PERICENTER": "127.8006",
    "MEAN_ANOMALY": "232.3416",
    "EPHEMERIS_TYPE": "0",
    "ELEMENT_SET_NO": "999",
    "REV_AT_EPOCH": "52790",
    "BSTAR": "0.00011534",
    "MEAN_MOTION_DOT": "0.00000267",
    "MEAN_MOTION_DDOT": "0",
    "FILE": "3878419",
    "TLE_LINE0": "0 SARAL",
    "TLE_LINE1": "1 39086U 13009A   23092.85688475  .00000267  00000-0  11534-3 0  9998",
    "TLE_LINE2": "2 39086  98.5481 279.2414 0002636 127.8006 232.3416 14.32167214527908",
    "OBJECT_ID": "2013-009A",
    "OBJECT_NUMBER": "39086",
    "SEMIMAJOR_AXIS": "7162.633",
    "PERIOD": "100.547",
    "APOGEE": "786.386",
    "PERIGEE": "782.610",
    "DECAYED": "0"
  },
  {
    "COMMENT": "GENERATED VIA SPACETRACK.ORG API",
    "ORIGINATOR": "18 SPCS",
    "NORAD_CAT_ID": "39086",
    "OBJECT_NAME": "SARAL",
    "OBJECT_TYPE": "PAYLOAD",
    "CLASSIFICATION_TYPE": "U",
    "INTLDES": "13009A",
    "EPOCH": "2023-04-03 03:16:19",
    "EPOCH_MICROSECONDS": "923744",
    "MEAN_MOTION": "14.32167464",
    "ECCENTRICITY": "0.0002648",
    "INCLINATION": "98.548",
    "RA_OF_ASC_NODE": "279.5168",
    "ARG_OF_PERICENTER": "127.3042",
    "MEAN_ANOMALY": "232.8383",
    "EPHEMERIS_TYPE": "0",
    "ELEMENT_SET_NO": "999",
    "REV_AT_EPOCH": "52794",
    "BSTAR": "0.00011795",
    "MEAN_MOTION_DOT": "0.00000274",
    "MEAN_MOTION_DDOT": "0",
    "FILE": "3878459",
    "TLE_LINE0": "0 SARAL",
    "TLE_LINE1": "1 39086U 13009A   23093.13634171  .00000274  00000-0  11795-3 0  9991",
    "TLE_LINE2": "2 39086  98.5480 279.5168 0002648 127.3042 232.8383 14.32167464527943",
    "OBJECT_ID": "2013-009A",
    "OBJECT_NUMBER": "39086",
    "SEMIMAJOR_AXIS": "7162.632",
    "PERIOD": "100.547",
    "APOGEE": "786.394",
    "PERIGEE": "782.600",
    "DECAYED": "0"
  },
  {
    "COMMENT": "GENERATED VIA SPACETRACK.ORG API",
    "ORIGINATOR": "18 SPCS",
    "NORAD_CAT_ID": "39086",
    "OBJECT_NAME": "SARAL",
    "OBJECT_TYPE": "PAYLOAD",
    "CLASSIFICATION_TYPE": "U",
    "INTLDES": "13009A",
    "EPOCH": "2023-04-03 13:19:57",
    "EPOCH_MICROSECONDS": "550080",
    "MEAN_MOTION": "14.32167646",
    "ECCENTRICITY": "0.0002663",
    "INCLINATION": "98.548",
    "RA_OF_ASC_NODE": "279.9299",
    "ARG_OF_PERICENTER": "126.4928",
    "MEAN_ANOMALY": "233.6501",
    "EPHEMERIS_TYPE": "0",
    "ELEMENT_SET_NO": "999",
    "REV_AT_EPOCH": "52800",
    "BSTAR": "0.00011265",
    "MEAN_MOTION_DOT": "0.0000026",
    "MEAN_MOTION_DDOT": "0",
    "FILE": "3879059",
    "TLE_LINE0": "0 SARAL",
    "TLE_LINE1": "1 39086U 13009A   23093.55552720  .00000260  00000-0  11265-3 0  9993",
    "TLE_LINE2": "2 39086  98.5480 279.9299 0002663 126.4928 233.6501 14.32167646528003",
    "OBJECT_ID": "2013-009A",
    "OBJECT_NUMBER": "39086",
    "SEMIMAJOR_AXIS": "7162.631",
    "PERIOD": "100.547",
    "APOGEE": "786.404",
    "PERIGEE": "782.589",
    "DECAYED": "0"
  },
  {
    "COMMENT": "GENERATED VIA SPACETRACK.ORG API",
    "ORIGINATOR": "18 SPCS",
    "NORAD_CAT_ID": "39086",
    "OBJECT_NAME": "SARAL",
    "OBJECT_TYPE": "PAYLOAD",
    "CLASSIFICATION_TYPE": "U",
    "INTLDES": "13009A",
    "EPOCH": "2023-04-03 20:02:22",
    "EPOCH_MICROSECONDS": "624512",
    "MEAN_MOTION": "14.3216789",
    "ECCENTRICITY": "0.0002675",
    "INCLINATION": "98.5481",
    "RA_OF_ASC_NODE": "280.2053",
    "ARG_OF_PERICENTER": "125.9208",
    "MEAN_ANOMALY": "234.2225",
    "EPHEMERIS_TYPE": "0",
    "ELEMENT_SET_NO": "999",
    "REV_AT_EPOCH": "52804",
    "BSTAR": "0.00011542",
    "MEAN_MOTION_DOT": "0.00000267",
    "MEAN_MOTION_DDOT": "0",
    "FILE": "3879321",
    "TLE_LINE0": "0 SARAL",
    "TLE_LINE1": "1 39086U 13009A   23093.83498408  .00000267  00000-0  11542-3 0  9991",
    "TLE_LINE2": "2 39086  98.5481 280.2053 0002675 125.9208 234.2225 14.32167890528040",
    "OBJECT_ID": "2013-009A",
    "OBJECT_NUMBER": "39086",
    "SEMIMAJOR_AXIS": "7162.631",
    "PERIOD": "100.547",
    "APOGEE": "786.412",
    "PERIGEE": "782.580",
    "DECAYED": "0"
  },
  {
    "COMMENT": "GENERATED VIA SPACETRACK.ORG API",
    "ORIGINATOR": "18 SPCS",
    "NORAD_CAT_ID": "39086",
    "OBJECT_NAME": "SARAL",
    "OBJECT_TYPE": "PAYLOAD",
    "CLASSIFICATION_TYPE": "U",
    "INTLDES": "13009A",
    "EPOCH": "2023-04-04 11:07:49",
    "EPOCH_MICROSECONDS": "36800",
    "MEAN_MOTION": "14.32168298",
    "ECCENTRICITY": "0.000269",
    "INCLINATION": "98.548",
    "RA_OF_ASC_NODE": "280.825",
    "ARG_OF_PERICENTER": "124.7807",
    "MEAN_ANOMALY": "235.363",
    "EPHEMERIS_TYPE": "0",
    "ELEMENT_SET_NO": "999",
    "REV_AT_EPOCH": "52813",
    "BSTAR": "0.00011297",
    "MEAN_MOTION_DOT": "0.00000261",
    "MEAN_MOTION_DDOT": "0",
    "FILE": "3879738",
    "TLE_LINE0": "0 SARAL",
    "TLE_LINE1": "1 39086U 13009A   23094.46376200  .00000261  00000-0  11297-3 0  9997",
    "TLE_LINE2": "2 39086  98.5480 280.8250 0002690 124.7807 235.3630 14.32168298528138",
    "OBJECT_ID": "2013-009A",
    "OBJECT_NUMBER": "39086",
    "SEMIMAJOR_AXIS": "7162.629",
    "PERIOD": "100.547",
    "APOGEE": "786.421",
    "PERIGEE": "782.567",
    "DECAYED": "0"
  }
]